IRIDIUM 155             
1 43573U 18061E   23113.62822630  .00000407  00000+0  13833-3 0  9998
2 43573  86.4023 177.5368 0002385 101.6623 258.4840 14.34217298248445
IRIDIUM 154             
1 43574U 18061F   23113.60920181  .00000423  00000+0  14398-3 0  9992
2 43574  86.4027 177.6224 0002081  92.3171 267.8263 14.34215894248497
IRIDIUM 163             
1 43575U 18061G   23113.59016489  .00000439  00000+0  14952-3 0  9991
2 43575  86.4024 177.5813 0002375  92.1073 268.0395 14.34221588248466
IRIDIUM 156             
1 43576U 18061H   23113.63457439  .00000408  00000+0  13846-3 0  9998
2 43576  86.4024 177.5686 0002504  96.9457 263.2023 14.34215433248464
IRIDIUM 164             
1 43577U 18061J   23113.61553421  .00000433  00000+0  14739-3 0  9995
2 43577  86.4027 177.5991 0002272  90.3172 269.8284 14.34217816248504
IRIDIUM 159             
1 43578U 18061K   23113.58382490  .00000431  00000+0  14668-3 0  9997
2 43578  86.4025 177.5736 0002204  97.6767 262.4679 14.34219432248463
IRIDIUM 180             
1 43922U 19002A   23113.51355454  .00000213  00000+0  69130-4 0  9992
2 43922  86.3920 114.5297 0002252  86.2622 273.8831 14.34219612224065
IRIDIUM 176             
1 43923U 19002B   23113.46578548  .00000671  00000+0  10253-3 0  9997
2 43923  86.6054 114.5904 0002676  94.9613 265.1910 14.72260199229940
IRIDIUM 168             
1 43924U 19002C   23113.43744981  .00000207  00000+0  66947-4 0  9998
2 43924  86.3922 114.6063 0002176  87.9987 272.1458 14.34219523224033
IRIDIUM 173             
1 43925U 19002D   23113.42475834  .00000228  00000+0  74217-4 0  9998
2 43925  86.3919 114.5475 0002177  86.1339 274.0106 14.34220050224015
IRIDIUM 169             
1 43926U 19002E   23113.79978741  .00000523  00000+0  16444-3 0  9999
2 43926  86.4224 145.9944 0004689 143.7701 216.3816 14.38605406224831
IRIDIUM 172             
1 43927U 19002F   23113.48818929  .00000185  00000+0  58845-4 0  9993
2 43927  86.3920 114.5255 0002246  89.1813 270.9640 14.34218758224034
IRIDIUM 175             
1 43928U 19002G   23113.59521524  .00000726  00000+0  11118-3 0  9990
2 43928  86.1467 111.4359 0002494  91.8582 268.2920 14.72238687229950
IRIDIUM 171             
1 43929U 19002H   23113.46915450  .00000217  00000+0  70357-4 0  9998
2 43929  86.3930 114.7121 0002176  86.6241 273.5204 14.34220128224028
IRIDIUM 170             
1 43930U 19002J   23113.47192815  .00000711  00000+0  10881-3 0  9997
2 43930  86.6055 114.5928 0002545  93.6145 266.5363 14.72262188229954
IRIDIUM 167             
1 43931U 19002K   23113.46280928  .00000295  00000+0  98155-4 0  9998
2 43931  86.3920 114.5484 0002155  83.7953 276.3489 14.34217836224023
